AMGU-1 (AMURSAT)        
1 44394U 19038J   21344.54777847  .00002124  00000+0  11872-3 0  9998
2 44394  97.6102 308.5975 0022740  66.8800 293.4823 15.14402588134424
DOT-1                   
1 44399U 19038P   21344.29537825  .00001213  00000+0  71602-4 0  9991
2 44399  97.6153 307.6012 0025699  71.8676 288.5350 15.13214133134325
SOKRAT                  
1 44404U 19038U   21344.65282387  .00002088  00000+0  11724-3 0  9997
2 44404  97.6116 308.4252 0023028  68.4462 291.9220 15.14251671134429
LUCKY-7                 
1 44406U 19038W   21344.67921790  .00001286  00000+0  75040-4 0  9990
2 44406  97.6146 308.2600 0025454  63.5262 296.8576 15.13533740134391
D-STAR ONE (EXOCONNECT) 
1 44410U 19038AA  21344.37424493  .00002672  00000+0  14422-3 0  9996
2 44410  97.6082 308.6024 0022548  66.2803 294.0791 15.15420596134420
NARSSCUBE-2             
1 44415U 19022E   21344.29057996  .00000913  00000+0  41068-4 0  9998
2 44415  51.6421 311.2266 0011860  94.5655 265.6682 15.31932106131090
KRAKSAT                 
1 44427U 98067QM  21344.44082494  .00117937  00000+0  40159-3 0  9999
2 44427  51.6345 115.9110 0004319 252.6861 213.7551 15.88946538139208
NARSSCUBE-1             
1 44792U 98067QX  21344.46386917  .00428593  95156-4  62965-3 0  9996
2 44792  51.6250 123.5951 0007515 297.5663  62.4585 16.04418240117334
DUCHIFAT-3              
1 44854U 19089C   21344.50428639  .00000854  00000+0  73993-4 0  9994
2 44854  36.9617 139.2708 0006432 125.5438 234.5908 14.99846054109542
OPS-SAT                 
1 44878U 19092F   21344.45948997  .00001661  00000+0  86756-4 0  9990
2 44878  97.4749 165.5174 0012114 279.8888  80.0978 15.17241573109515
FLORIPASAT-1            
1 44885U 19093G   21344.73075357  .00000562  00000+0  76502-4 0  9998
2 44885  97.9148  62.3904 0015966  88.1638 272.1403 14.82499798106887
HUSKYSAT-1 (HO-107)     
1 45119U 19071J   21343.88505644  .00003149  00000+0  94066-4 0  9996
2 45119  51.6407 265.2155 0010352 198.1996 161.8618 15.37721405104141
G-SAT                   
1 45597U 98067RK  21344.49263416  .00020122  00000+0  19413-3 0  9996
2 45597  51.6361 161.6628 0003849 236.3188 123.7441 15.66471441 92113
QUETZAL-1               
1 45598U 98067RL  21344.77061620  .00047903  00000+0  34205-3 0  9993
2 45598  51.6344 154.4828 0003304 228.2194 131.8523 15.73274529 92162
BY70-2                  
1 45857U 20042B   21344.54450517  .00001902  00000+0  27268-3 0  9991
2 45857  97.9732  58.4188 0010548  14.0124 346.1358 14.77670092 77548
SALSAT                  
1 46495U 20068K   21344.55316916  .00000468  00000+0  38587-4 0  9996
2 46495  97.7098 281.1578 0016396 190.2285 169.8609 15.03709084 65797
NETSAT-4                
1 46504U 20068U   21344.54812527  .00000658  00000+0  54272-4 0  9995
2 46504  97.7083 280.0907 0009925 237.2935 122.7306 15.02417756 65670
NETSAT-3                
1 46505U 20068V   21344.55899458  .00000913  00000+0  73534-4 0  9991
2 46505  97.7059 280.0459 0010062 246.3749 113.6391 15.02387646 65682
NETSAT-1                
1 46506U 20068W   21344.63635353  .00001431  00000+0  11275-3 0  9992
2 46506  97.7032 280.0715 0009290 260.5682  99.4489 15.02343248 65694
NETSAT-2                
1 46507U 20068X   21344.57627285  .00001728  00000+0  13538-3 0  9994
2 46507  97.7044 280.0085 0008693 270.0396  89.9843 15.02312395 65633
BY70-3                  
1 46839U 20079N   21344.52600031  .00004771  00000+0  14052-3 0  9992
2 46839  97.2242  54.9052 0005444 301.7225 182.9298 15.35509130 61200
SPOC                    
1 46921U 98067RR  21344.54865044  .00013316  00000+0  16708-3 0  9990
2 46921  51.6383 174.8410 0000870 108.8071 251.3016 15.60071195 62297
BOBCAT-1                
1 46922U 98067RS  21344.54093112  .00027003  00000+0  26965-3 0  9994
2 46922  51.6393 169.5743 0001693 164.2130 195.8918 15.65415282 62326
NEUTRON-1               
1 46923U 98067RT  21344.38676074  .00011433  00000+0  14517-3 0  9991
2 46923  51.6387 176.0101 0001323 111.2535 248.8600 15.59923707 62294
1998-067RU              
1 46924U 98067RU  21344.46812587  .00195771  00000+0  66351-3 0  9993
2 46924  51.6277 155.3757 0005226 240.5991 119.4492 15.88806604 62546
DESCENT                 
1 46927U 98067RX  21344.58117279  .00012821  00000+0  16136-3 0  9995
2 46927  51.6390 175.0548 0002017 114.1300 245.9904 15.60031187 62232
UVSQ-SAT                
1 47438U 21006AB  21344.58818856  .00001248  00000+0  72837-4 0  9993
2 47438  97.4661  42.4968 0011933 203.1192 156.9504 15.13720975 48696
SOMP2B                  
1 47445U 21006AJ  21344.42433580  .00001079  00000+0  63778-4 0  9997
2 47445  97.4633  42.1393 0011461 207.7395 152.3226 15.13526131 48669
WARP-01                 
1 47924U 98067SA  21344.54142233  .00018129  00000+0  22989-3 0  9997
2 47924  51.6378 181.5098 0003000  85.2102 274.9233 15.59510436 42196
RSP-01                  
1 47925U 98067SB  21344.82489479  .00014224  00000+0  19506-3 0  9998
2 47925  51.6394 181.1730 0000509 199.9818 160.1155 15.57628878 42201
TAUSAT-1                
1 47926U 98067SC  21344.60014275  .00018324  00000+0  22868-3 0  9993
2 47926  51.6383 180.4069 0000869 238.0600 122.0309 15.59927074 42187
TSURU                   
1 47927U 98067SD  21344.42556498  .00011101  00000+0  15828-3 0  9996
2 47927  51.6396 183.7556 0000407 219.1812 140.9151 15.56839667 42138
STARS-EC                
1 47928U 98067SE  21344.53838116  .00020883  00000+0  25885-3 0  9990
2 47928  51.6385 181.4970 0003467  88.9723 271.1667 15.60006087 42152
MAYA-2                  
1 47929U 98067SF  21344.54958715  .00011657  00000+0  16582-3 0  9993
2 47929  51.6393 183.0817 0000461 241.6057 118.4889 15.56845441 42114
HIROGARI (OPUSAT-II)    
1 47930U 98067SG  21344.58795911  .00022076  00000+0  26563-3 0  9993
2 47930  51.6385 180.3408 0001700 200.2771 159.8155 15.60752173 42191
GUARANISAT-1            
1 47931U 98067SH  21344.28934379  .00010659  00000+0  15200-3 0  9994
2 47931  51.6395 184.3488 0000503 235.1600 124.9345 15.56884494 42116
DIY-1 (ARDUIQUBE)       
1 47963U 21022AH  21344.42525006  .00002560  00000+0  16720-3 0  9995
2 47963  97.5450 243.6185 0020744  63.9616 296.3746 15.08549964 38412
